NORAD_CAT_ID,OBJECT_NAME,OBJECT_TYPE,EPOCH,MEAN_MOTION,ECCENTRICITY,INCLINATION,RA_OF_ASC_NODE,ARG_OF_PERICENTER,MEAN_ANOMALY,BSTAR,MEAN_MOTION_DOT,MEAN_MOTION_DDOT,TLE_LINE0,TLE_LINE1,TLE_LINE2,SEMIMAJOR_AXIS,PERIOD,APOGEE,PERIGEE,DECAYED
53613.0,STARLINK-4655,PAYLOAD,2023-11-01 19:49:39,15.08852025,0.0001655,53.2168,129.8596,69.4927,290.6243,0.00028101,4.189e-05,0.0,0 STARLINK-4655,1 53613U 22104AB  23305.82615211  .00004189  00000-0  28101-3 0  9993,2 53613  53.2168 129.8596 0001655  69.4927 290.6243 15.08852025 65406,6917.844,95.437,540.854,538.564,0.0
53613.0,STARLINK-4655,PAYLOAD,2023-11-01 21:25:02,15.08844042,0.0001419,53.2168,129.5632,83.5369,276.5784,0.00015313,2.15e-05,0.0,0 STARLINK-4655,1 53613U 22104AB  23305.89239494  .00002150  00000-0  15313-3 0  9992,2 53613  53.2168 129.5632 0001419  83.5369 276.5784 15.08844042 65985,6917.868,95.437,540.715,538.751,0.0
53613.0,STARLINK-4655,PAYLOAD,2023-11-02 11:43:31,15.08839185,0.0001583,53.217,126.8869,83.5979,276.5194,9.9527e-05,1.296e-05,0.0,0 STARLINK-4655,1 53613U 22104AB  23306.48855902  .00001296  00000-0  99527-4 0  9996,2 53613  53.2170 126.8869 0001583  83.5979 276.5194 15.08839185 65504,6917.883,95.438,540.843,538.653,0.0
53613.0,STARLINK-4655,PAYLOAD,2023-11-02 19:40:26,15.08845371,0.0001453,53.2157,125.3995,88.573,271.5429,5.682e-05,6.17e-06,0.0,0 STARLINK-4655,1 53613U 22104AB  23306.81975549  .00000617  00000-0  56820-4 0  9998,2 53613  53.2157 125.3995 0001453  88.5730 271.5429 15.08845371 66128,6917.864,95.437,540.734,538.724,0.0
53613.0,STARLINK-4655,PAYLOAD,2023-11-03 13:09:41,15.08840913,0.0001364,53.2162,122.1286,91.2225,268.8923,0.00012956,1.775e-05,0.0,0 STARLINK-4655,1 53613U 22104AB  23307.54839899  .00001775  00000-0  12956-3 0  9993,2 53613  53.2162 122.1286 0001364  91.2225 268.8923 15.08840913 66230,6917.878,95.437,540.686,538.799,0.0
53613.0,STARLINK-4655,PAYLOAD,2023-11-03 21:06:37,15.08847035,0.0001376,53.2156,120.6419,87.8653,272.2496,0.00021185,3.086e-05,0.0,0 STARLINK-4655,1 53613U 22104AB  23307.87959565  .00003086  00000-0  21185-3 0  9993,2 53613  53.2156 120.6419 0001376  87.8653 272.2496 15.08847035 65711,6917.859,95.437,540.676,538.772,0.0
53613.0,STARLINK-4655,PAYLOAD,2023-11-04 11:25:05,15.08841965,0.000136,53.2157,117.9655,87.3561,272.7587,0.00013442,1.852e-05,0.0,0 STARLINK-4655,1 53613U 22104AB  23308.47575807  .00001852  00000-0  13442-3 0  9999,2 53613  53.2157 117.9655 0001360  87.3561 272.7587 15.08841965 65801,6917.874,95.437,540.68,538.799,0.0
53613.0,STARLINK-4655,PAYLOAD,2023-11-04 17:46:37,15.08846013,0.0001368,53.2156,116.7761,86.8155,273.2993,0.00021092,3.071e-05,0.0,0 STARLINK-4655,1 53613U 22104AB  23308.74071671  .00003071  00000-0  21092-3 0  9994,2 53613  53.2156 116.7761 0001368  86.8155 273.2993 15.08846013 66410,6917.862,95.437,540.673,538.781,0.0
53613.0,STARLINK-4655,PAYLOAD,2023-11-05 14:26:38,15.08844989,0.0001394,53.216,112.9106,85.8372,274.2779,0.00016925,2.407e-05,0.0,0 STARLINK-4655,1 53613U 22104AB  23309.60183532  .00002407  00000-0  16925-3 0  9991,2 53613  53.2160 112.9106 0001394  85.8372 274.2779 15.08844989 66542,6917.865,95.437,540.694,538.766,0.0
53613.0,STARLINK-4655,PAYLOAD,2023-11-05 17:37:24,15.0885047,0.0001401,53.2158,112.3154,89.6417,270.4735,0.00025765,3.816e-05,0.0,0 STARLINK-4655,1 53613U 22104AB  23309.73431290  .00003816  00000-0  25765-3 0  9999,2 53613  53.2158 112.3154 0001401  89.6417 270.4735 15.08850470 65997,6917.848,95.437,540.683,538.744,0.0
53613.0,STARLINK-4655,PAYLOAD,2023-11-06 14:17:24,15.08854186,0.0001475,53.2151,108.4495,87.2847,272.8314,0.00022326,3.268e-05,0.0,0 STARLINK-4655,1 53613U 22104AB  23310.59542750  .00003268  00000-0  22326-3 0  9990,2 53613  53.2151 108.4495 0001475  87.2847 272.8314 15.08854186 66691,6917.837,95.437,540.722,538.682,0.0
53613.0,STARLINK-4655,PAYLOAD,2023-11-07 10:57:26,15.08829746,0.0001472,53.2152,104.5826,89.1738,270.9423,-0.00019244,-3.348e-05,0.0,0 STARLINK-4655,1 53613U 22104AB  23311.45655594 -.00003348  00000-0 -19244-3 0  9993,2 53613  53.2152 104.5826 0001472  89.1738 270.9423 15.08829746 66250,6917.912,95.438,540.795,538.758,0.0
53613.0,STARLINK-4655,PAYLOAD,2023-11-07 14:08:12,15.08822547,0.0001354,53.2161,103.9875,114.3518,245.7615,-0.0003256,-5.464e-05,0.0,0 STARLINK-4655,1 53613U 22104AB  23311.58903808 -.00005464  00000-0 -32560-3 0  9998,2 53613  53.2161 103.9875 0001354 114.3518 245.7615 15.08822547 66843,6917.934,95.439,540.735,538.862,0.0
53613.0,STARLINK-4655,PAYLOAD,2023-11-08 02:51:19,15.08798216,0.0001839,53.2163,101.6098,90.5302,269.59,-0.00058263,-9.538e-05,0.0,0 STARLINK-4655,1 53613U 22104AB  23312.11897938 -.00009538  00000-0 -58263-3 0  9998,2 53613  53.2163 101.6098 0001839  90.5302 269.5900 15.08798216 66353,6918.008,95.44,541.145,538.601,0.0
53613.0,STARLINK-4655,PAYLOAD,2023-11-08 10:48:14,15.0883171,0.0001139,53.216,100.1227,98.7084,261.4038,-1.2741e-05,-4.91e-06,0.0,0 STARLINK-4655,1 53613U 22104AB  23312.45016412 -.00000491  00000-0 -12741-4 0  9996,2 53613  53.2160 100.1227 0001139  98.7084 261.4038 15.08831710 66404,6917.906,95.438,540.559,538.983,0.0
53613.0,STARLINK-4655,PAYLOAD,2023-11-08 13:59:00,15.08838751,0.0001238,53.216,99.5279,100.1333,259.9798,0.00012397,1.686e-05,0.0,0 STARLINK-4655,1 53613U 22104AB  23312.58264115  .00001686  00000-0  12397-3 0  9996,2 53613  53.2160  99.5279 0001238 100.1333 259.9798 15.08838751 66998,6917.884,95.438,540.606,538.893,0.0
53613.0,STARLINK-4655,PAYLOAD,2023-11-08 17:09:45,15.08868935,0.0001435,53.2163,98.9331,98.8714,261.2441,0.00069564,0.00010809,0.0,0 STARLINK-4655,1 53613U 22104AB  23312.71510702  .00010809  00000-0  69564-3 0  9992,2 53613  53.2163  98.9331 0001435  98.8714 261.2441 15.08868935 66446,6917.792,95.436,540.65,538.664,0.0
53613.0,STARLINK-4655,PAYLOAD,2023-11-09 02:42:09,15.08742062,0.0001578,53.2173,97.1555,104.4912,255.6255,-0.0011316,-0.00018204,0.0,0 STARLINK-4655,1 53613U 22104AB  23313.11261042 -.00018204  00000-0 -11316-2 0  9997,2 53613  53.2173  97.1555 0001578 104.4912 255.6255 15.08742062 66507,6918.18,95.444,541.136,538.953,0.0
53613.0,STARLINK-4655,PAYLOAD,2023-11-09 13:49:48,15.08813171,0.0001066,53.2177,95.0758,31.064,329.0415,0.00027714,4.122e-05,0.0,0 STARLINK-4655,1 53613U 22104AB  23313.57625957  .00004122  00000-0  27714-3 0  9998,2 53613  53.2177  95.0758 0001066  31.0640 329.0415 15.08813171 67143,6917.962,95.439,540.565,539.09,0.0
53613.0,STARLINK-4655,PAYLOAD,2023-11-09 15:25:10,15.08855327,7.86e-05,53.2182,94.7776,83.8645,276.2437,-0.00037145,-6.197e-05,0.0,0 STARLINK-4655,1 53613U 22104AB  23313.64248409 -.00006197  00000-0 -37145-3 0  9994,2 53613  53.2182  94.7776 0000786  83.8645 276.2437 15.08855327 66586,6917.834,95.437,540.242,539.155,0.0
53613.0,STARLINK-4655,PAYLOAD,2023-11-10 08:54:26,15.08834843,8.46e-05,53.2182,91.5005,93.5187,266.5902,9.9749e-05,1.3e-05,0.0,0 STARLINK-4655,1 53613U 22104AB  23314.37113649  .00001300  00000-0  99749-4 0  9990,2 53613  53.2182  91.5005 0000846  93.5187 266.5902 15.08834843 66693,6917.896,95.438,540.346,539.176,0.0
53613.0,STARLINK-4655,PAYLOAD,2023-11-10 13:40:35,15.08841015,9e-05,53.2169,90.6122,76.9212,283.188,9.2629e-05,1.187e-05,0.0,0 STARLINK-4655,1 53613U 22104AB  23314.56985331  .00001187  00000-0  92629-4 0  9999,2 53613  53.2169  90.6122 0000900  76.9212 283.1880 15.08841015 67299,6917.877,95.437,540.365,539.12,0.0
53613.0,STARLINK-4655,PAYLOAD,2023-11-10 16:51:20,15.0885022,8.45e-05,53.2159,90.0141,83.6089,276.5,0.0002058,2.99e-05,0.0,0 STARLINK-4655,1 53613U 22104AB  23314.70232588  .00002990  00000-0  20580-3 0  9993,2 53613  53.2159  90.0141 0000845  83.6089 276.5000 15.08850220 66745,6917.849,95.437,540.299,539.13,0.0
53613.0,STARLINK-4655,PAYLOAD,2023-11-11 15:06:45,15.08844573,7.51e-05,53.2165,85.8503,80.1923,279.9154,0.00022368,3.274e-05,0.0,0 STARLINK-4655,1 53613U 22104AB  23315.62968841  .00003274  00000-0  22368-3 0  9995,2 53613  53.2165  85.8503 0000751  80.1923 279.9154 15.08844573 67451,6917.866,95.437,540.251,539.212,0.0
53613.0,STARLINK-4655,PAYLOAD,2023-11-11 18:17:31,15.08849946,9.63e-05,53.2164,85.2553,71.6733,288.4364,0.0003356,5.059e-05,0.0,0 STARLINK-4655,1 53613U 22104AB  23315.76216577  .00005059  00000-0  33560-3 0  9991,2 53613  53.2164  85.2553 0000963  71.6733 288.4364 15.08849946 66904,6917.85,95.437,540.381,539.049,0.0
53613.0,STARLINK-4655,PAYLOAD,2023-11-12 13:22:08,15.08846395,0.0001187,53.2168,81.6822,118.4039,241.7073,-4.0595e-05,-9.34e-06,0.0,0 STARLINK-4655,1 53613U 22104AB  23316.55704420 -.00000934  00000-0 -40595-4 0  9994,2 53613  53.2168  81.6822 0001187 118.4039 241.7073 15.08846395 67595,6917.861,95.437,540.547,538.905,0.0
53613.0,STARLINK-4655,PAYLOAD,2023-11-12 18:08:18,15.0884918,0.000111,53.2176,80.7914,116.427,243.6837,-1.797e-05,-5.74e-06,0.0,0 STARLINK-4655,1 53613U 22104AB  23316.75576422 -.00000574  00000-0 -17970-4 0  9996,2 53613  53.2176  80.7914 0001110 116.4270 243.6837 15.08849180 67052,6917.852,95.437,540.485,538.949,0.0
53613.0,STARLINK-4655,PAYLOAD,2023-11-13 11:37:32,15.08841708,0.0001086,53.2171,77.5245,96.0455,264.0661,-1.468e-05,-5.21e-06,0.0,0 STARLINK-4655,1 53613U 22104AB  23317.48440898 -.00000521  00000-0 -14680-4 0  9991,2 53613  53.2171  77.5245 0001086  96.0455 264.0661 15.08841708 67160,6917.875,95.437,540.491,538.989,0.0
53613.0,STARLINK-4655,PAYLOAD,2023-11-13 13:12:56,15.08841813,0.0001061,53.2173,77.227,95.6826,264.4287,-1.832e-05,-5.79e-06,0.0,0 STARLINK-4655,1 53613U 22104AB  23317.55064874 -.00000579  00000-0 -18320-4 0  9993,2 53613  53.2173  77.2270 0001061  95.6826 264.4287 15.08841813 67746,6917.875,95.437,540.474,539.006,0.0
53613.0,STARLINK-4655,PAYLOAD,2023-11-14 14:39:06,15.08843817,9.39e-05,53.217,72.469,87.2327,272.8773,2.4719e-05,1.06e-06,0.0,0 STARLINK-4655,1 53613U 22104AB  23318.61048722  .00000106  00000-0  24719-4 0  9998,2 53613  53.2170  72.4690 0000939  87.2327 272.8773 15.08843817 67909,6917.869,95.437,540.383,539.084,0.0
